{
  "norad_id": 49303,
  "name": "ONEWEB-0377",
  "history": [
    {
      "epoch": "2026-04-13T00:15:30.534048Z",
      "apogee_km": 1182.9376017571476,
      "perigee_km": 1180.623208642719,
      "latitude_deg": 3.352595637310687e-05,
      "longitude_deg": 82.36099128490343,
      "height_km": 1184.6708773164967,
      "semi_major_axis_km": 7559.917405199933,
      "eccentricity": 0.00015307,
      "inclination_deg": 87.9138,
      "raan_deg": 287.4459,
      "arg_perigee_deg": 89.4998,
      "mean_anomaly_deg": 270.6311,
      "mean_motion_rev_day": 13.2076997
    },
    {
      "epoch": "2026-04-13T22:04:35.269824Z",
      "apogee_km": 1182.9221136740116,
      "perigee_km": 1180.6359950591723,
      "latitude_deg": -5.357397905285361e-05,
      "longitude_deg": 114.0135235759869,
      "height_km": 1184.6796285841003,
      "semi_major_axis_km": 7559.916054366592,
      "eccentricity": 0.0001512,
      "inclination_deg": 87.9138,
      "raan_deg": 287.2642,
      "arg_perigee_deg": 89.9976,
      "mean_anomaly_deg": 270.133,
      "mean_motion_rev_day": 13.20770324
    },
    {
      "epoch": "2026-04-15T17:42:44.745696Z",
      "apogee_km": 1182.9263127937147,
      "perigee_km": 1180.6356576441922,
      "latitude_deg": 1.9872110164267064e-05,
      "longitude_deg": 177.31858104538935,
      "height_km": 1184.7170040996643,
      "semi_major_axis_km": 7559.917985218953,
      "eccentricity": 0.0001515,
      "inclination_deg": 87.914,
      "raan_deg": 286.9008,
      "arg_perigee_deg": 91.7714,
      "mean_anomaly_deg": 268.3593,
      "mean_motion_rev_day": 13.20769818
    },
    {
      "epoch": "2026-04-16T17:20:54.839616Z",
      "apogee_km": 1182.9358655740398,
      "perigee_km": 1180.6270664745161,
      "latitude_deg": -1.300397425813107e-05,
      "longitude_deg": -178.39097791719016,
      "height_km": 1184.7271447654127,
      "semi_major_axis_km": 7559.918466024278,
      "eccentricity": 0.0001527,
      "inclination_deg": 87.9142,
      "raan_deg": 286.704,
      "arg_perigee_deg": 92.2378,
      "mean_anomaly_deg": 267.893,
      "mean_motion_rev_day": 13.20769692
    },
    {
      "epoch": "2026-04-17T22:26:21.138432Z",
      "apogee_km": 1182.935902765289,
      "perigee_km": 1180.6245336749917,
      "latitude_deg": -2.6411533477302e-05,
      "longitude_deg": 103.81243472948628,
      "height_km": 1184.7356570653278,
      "semi_major_axis_km": 7559.91721822014,
      "eccentricity": 0.00015287,
      "inclination_deg": 87.914,
      "raan_deg": 286.4617,
      "arg_perigee_deg": 92.7196,
      "mean_anomaly_deg": 267.4112,
      "mean_motion_rev_day": 13.20770019
    },
    {
      "epoch": "2026-04-18T18:26:20.522112Z",
      "apogee_km": 1182.9449909072391,
      "perigee_km": 1180.6180479869536,
      "latitude_deg": -3.625687607883113e-05,
      "longitude_deg": 162.82703865866156,
      "height_km": 1184.747895859488,
      "semi_major_axis_km": 7559.9185194470965,
      "eccentricity": 0.0001539,
      "inclination_deg": 87.914,
      "raan_deg": 286.2951,
      "arg_perigee_deg": 93.2414,
      "mean_anomaly_deg": 266.8895,
      "mean_motion_rev_day": 13.20769678
    },
    {
      "epoch": "2026-04-19T18:04:30.659232Z",
      "apogee_km": 1182.9458887581486,
      "perigee_km": 1180.614410309232,
      "latitude_deg": 4.1592073128245935e-05,
      "longitude_deg": 167.11720037555273,
      "height_km": 1184.7594901854459,
      "semi_major_axis_km": 7559.91714953369,
      "eccentricity": 0.0001542,
      "inclination_deg": 87.914,
      "raan_deg": 286.0982,
      "arg_perigee_deg": 93.8741,
      "mean_anomaly_deg": 266.2569,
      "mean_motion_rev_day": 13.20770037
    },
    {
      "epoch": "2026-04-20T10:26:19.256640Z",
      "apogee_km": 1182.9530082373758,
      "perigee_km": 1180.610038288647,
      "latitude_deg": -3.297792120292302e-05,
      "longitude_deg": -79.14361783524876,
      "height_km": 1184.7730086198314,
      "semi_major_axis_km": 7559.918523263012,
      "eccentricity": 0.00015496,
      "inclination_deg": 87.9138,
      "raan_deg": 285.9619,
      "arg_perigee_deg": 94.4506,
      "mean_anomaly_deg": 265.6804,
      "mean_motion_rev_day": 13.20769677
    },
    {
      "epoch": "2026-04-21T17:20:50.930016Z",
      "apogee_km": 1182.9607449305086,
      "perigee_km": 1180.6005386427423,
      "latitude_deg": -3.89519231498451e-05,
      "longitude_deg": 175.697627171227,
      "height_km": 1184.7918215399266,
      "semi_major_axis_km": 7559.917641786625,
      "eccentricity": 0.0001561,
      "inclination_deg": 87.914,
      "raan_deg": 285.7045,
      "arg_perigee_deg": 95.3782,
      "mean_anomaly_deg": 264.7529,
      "mean_motion_rev_day": 13.20769908
    },
    {
      "epoch": "2026-04-22T16:59:01.034304Z",
      "apogee_km": 1182.958839523597,
      "perigee_km": 1180.6031690734571,
      "latitude_deg": 4.60856849337744e-06,
      "longitude_deg": 179.98792332381194,
      "height_km": 1184.798269775219,
      "semi_major_axis_km": 7559.918004298527,
      "eccentricity": 0.0001558,
      "inclination_deg": 87.9139,
      "raan_deg": 285.5076,
      "arg_perigee_deg": 95.686,
      "mean_anomaly_deg": 264.4451,
      "mean_motion_rev_day": 13.20769813
    }
  ]
}